[{"OBJECT_NAME":"STARLINK-3522","OBJECT_ID":"2022-016M","EPOCH":"2026-03-09T21:59:17.419776","MEAN_MOTION":15.08840993,"ECCENTRICITY":0.0001768,"INCLINATION":53.2203,"RA_OF_ASC_NODE":328.0947,"ARG_OF_PERICENTER":62.0569,"MEAN_ANOMALY":298.0602,"EPHEMERIS_TYPE":0,"CLASSIFICATION_TYPE":"U","NORAD_CAT_ID":51725,"ELEMENT_SET_NO":999,"REV_AT_EPOCH":22345,"BSTAR":-0.0001153914,"MEAN_MOTION_DOT":-2.124e-5,"MEAN_MOTION_DDOT":0},{"OBJECT_NAME":"UNISAT-5","OBJECT_ID":"2013-066F","EPOCH":"2026-03-09T22:02:55.134816","MEAN_MOTION":15.04155626,"ECCENTRICITY":0.00317175,"INCLINATION":97.6976,"RA_OF_ASC_NODE":39.5171,"ARG_OF_PERICENTER":68.1555,"MEAN_ANOMALY":292.3039,"EPHEMERIS_TYPE":0,"CLASSIFICATION_TYPE":"U","NORAD_CAT_ID":39421,"ELEMENT_SET_NO":999,"REV_AT_EPOCH":66774,"BSTAR":0.0004680489,"MEAN_MOTION_DOT":6.504e-5,"MEAN_MOTION_DDOT":0}]
